$$SOE
2461302.500000000, A.D. 2026-Sep-19 00:00:00.0000, -5.044413202941510E+08, -6.851332585223258E+07, -6.184010404641739E+07,
2461309.500000000, A.D. 2026-Sep-26 00:00:00.0000, -5.019291781718466E+08, -7.733020096304625E+07, -6.331299793974318E+07,
2461316.500000000, A.D. 2026-Oct-03 00:00:00.0000, -4.992352430392933E+08, -8.611902281382285E+07, -6.476295264352387E+07,
2461323.500000000, A.D. 2026-Oct-10 00:00:00.0000, -4.963593735013089E+08, -9.487641899172273E+07, -6.618929789535736E+07,
2461330.500000000, A.D. 2026-Oct-17 00:00:00.0000, -4.933014776436313E+08, -1.035989838320231E+08, -6.759136177126829E+07,
2461337.500000000, A.D. 2026-Oct-24 00:00:00.0000, -4.900615145922062E+08, -1.122832783278789E+08, -6.896847080915031E+07,
2461344.500000000, A.D. 2026-Oct-31 00:00:00.0000, -4.866394960369153E+08, -1.209258302382048E+08, -7.031995016619128E+07,
2461351.500000000, A.D. 2026-Nov-07 00:00:00.0000, -4.830354873811712E+08, -1.295231343223003E+08, -7.164512383571766E+07,
2461358.500000000, A.D. 2026-Nov-14 00:00:00.0000, -4.792496083167284E+08, -1.380716518166118E+08, -7.294331486967525E+07,
2461365.500000000, A.D. 2026-Nov-21 00:00:00.0000, -4.752820346353844E+08, -1.465678084749470E+08, -7.421384538513896E+07,
2461372.500000000, A.D. 2026-Nov-28 00:00:00.0000, -4.711330022761741E+08, -1.550079941840528E+08, -7.545603650968269E+07,
2461379.500000000, A.D. 2026-Dec-05 00:00:00.0000, -4.668028099899139E+08, -1.633885648144926E+08, -7.666920865196534E+07,
2461386.500000000, A.D. 2026-Dec-12 00:00:00.0000, -4.622918204565183E+08, -1.717058431985961E+08, -7.785268185875392E+07,
2461393.500000000, A.D. 2026-Dec-19 00:00:00.0000, -4.576004617414029E+08, -1.799561192323030E+08, -7.900577608486313E+07,
2461400.500000000, A.D. 2026-Dec-26 00:00:00.0000, -4.527292292327021E+08, -1.881356499732776E+08, -8.012781143431446E+07,
2461407.500000000, A.D. 2027-Jan-02 00:00:00.0000, -4.476786877837462E+08, -1.962406599309545E+08, -8.121810841441138E+07,
2461414.500000000, A.D. 2027-Jan-09 00:00:00.0000, -4.424494739446453E+08, -2.042673415329763E+08, -8.227598821271388E+07,
2461421.500000000, A.D. 2027-Jan-16 00:00:00.0000, -4.370422982485949E+08, -2.122118557637716E+08, -8.330077300033297E+07,
2461428.500000000, A.D. 2027-Jan-23 00:00:00.0000, -4.314579475079214E+08, -2.200703330194955E+08, -8.429178626991779E+07,
2461435.500000000, A.D. 2027-Jan-30 00:00:00.0000, -4.256972869330764E+08, -2.278388742316419E+08, -8.524835323038478E+07,
2461442.500000000, A.D. 2027-Feb-06 00:00:00.0000, -4.197612616503552E+08, -2.355135519235711E+08, -8.616980127037384E+07,
2461449.500000000, A.D. 2027-Feb-13 00:00:00.0000, -4.136508980780935E+08, -2.430904099842821E+08, -8.705546034905808E+07,
2461456.500000000, A.D. 2027-Feb-20 00:00:00.0000, -4.073673075232536E+08, -2.505654629549503E+08, -8.790466316249457E+07,
2461463.500000000, A.D. 2027-Feb-27 00:00:00.0000, -4.009116906003034E+08, -2.579346980478143E+08, -8.871674547692207E+07,
2461470.500000000, A.D. 2027-Mar-06 00:00:00.0000, -3.942853394525951E+08, -2.651940779813076E+08, -8.949104674986577E+07,
2461477.500000000, A.D. 2027-Mar-13 00:00:00.0000, -3.874896393742197E+08, -2.723395425880032E+08, -9.022691072591417E+07,
2461484.500000000, A.D. 2027-Mar-20 00:00:00.0000, -3.805260709588526E+08, -2.793670100361522E+08, -9.092368597297208E+07,
2461491.500000000, A.D. 2027-Mar-27 00:00:00.0000, -3.733962125706724E+08, -2.862723782201629E+08, -9.158072642375936E+07,
2461498.500000000, A.D. 2027-Apr-03 00:00:00.0000, -3.661017429315856E+08, -2.930515263740507E+08, -9.219739194648384E+07,
2461505.500000000, A.D. 2027-Apr-10 00:00:00.0000, -3.586444437602381E+08, -2.997003168906350E+08, -9.277304894959073E+07,
2461512.500000000, A.D. 2027-Apr-17 00:00:00.0000, -3.510262024365881E+08, -3.062145973662593E+08, -9.330707102458853E+07,
2461519.500000000, A.D. 2027-Apr-24 00:00:00.0000, -3.432490146077144E+08, -3.125902029385474E+08, -9.379883963980477E+07,
2461526.500000000, A.D. 2027-May-01 00:00:00.0000, -3.353149864292783E+08, -3.188229588947797E+08, -9.424774491059315E+07,
2461533.500000000, A.D. 2027-May-08 00:00:00.0000, -3.272263361284963E+08, -3.249086828078598E+08, -9.465318641315094E+07,
2461540.500000000, A.D. 2027-May-15 00:00:00.0000, -3.189853963776829E+08, -3.308431852517074E+08, -9.501457382664308E+07,
2461547.500000000, A.D. 2027-May-22 00:00:00.0000, -3.105946190334233E+08, -3.366222716935603E+08, -9.533132747199018E+07,
2461554.500000000, A.D. 2027-May-29 00:00:00.0000, -3.020565788770475E+08, -3.422417470385182E+08, -9.560287917563117E+07,
2461561.500000000, A.D. 2027-Jun-05 00:00:00.0000, -2.933739754636742E+08, -3.476974197013125E+08, -9.582867328408869E+07,
2461568.500000000, A.D. 2027-Jun-12 00:00:00.0000, -2.845496350785346E+08, -3.529851047789909E+08, -9.600816761006422E+07,
2461575.500000000, A.D. 2027-Jun-19 00:00:00.0000, -2.755865131215739E+08, -3.581006272644516E+08, -9.614083435594001E+07,
2461582.500000000, A.D. 2027-Jun-26 00:00:00.0000, -2.664876966300172E+08, -3.630398255670434E+08, -9.622616106143658E+07,
2461589.500000000, A.D. 2027-Jul-03 00:00:00.0000, -2.572564067953728E+08, -3.677985553368783E+08, -9.626365158666910E+07,
2461596.500000000, A.D. 2027-Jul-10 00:00:00.0000, -2.478960014263241E+08, -3.723726935887647E+08, -9.625282713300289E+07,
2461603.500000000, A.D. 2027-Jul-17 00:00:00.0000, -2.384099773089182E+08, -3.767581431685520E+08, -9.619322730767210E+07,
2461610.500000000, A.D. 2027-Jul-24 00:00:00.0000, -2.288019722945563E+08, -3.809508376278327E+08, -9.608441125077000E+07,
2461617.500000000, A.D. 2027-Jul-31 00:00:00.0000, -2.190757666904208E+08, -3.849467462739158E+08, -9.592595884194840E+07,
2461624.500000000, A.D. 2027-Aug-07 00:00:00.0000, -2.092352841382655E+08, -3.887418782448322E+08, -9.571747187286428E+07,
2461631.500000000, A.D. 2027-Aug-14 00:00:00.0000, -1.992845942666451E+08, -3.923322858629863E+08, -9.545857499325740E+07,
2461638.500000000, A.D. 2027-Aug-21 00:00:00.0000, -1.892279164811459E+08, -3.957140706316930E+08, -9.514891676059882E+07,
2461645.500000000, A.D. 2027-Aug-28 00:00:00.0000, -1.790696214445117E+08, -3.988833906718913E+08, -9.478817100836590E+07,
2461652.500000000, A.D. 2027-Sep-04 00:00:00.0000, -1.688142314109983E+08, -4.018364670959399E+08, -9.437603821859966E+07,
2461659.500000000, A.D. 2027-Sep-11 00:00:00.0000, -1.584664207926417E+08, -4.045695899769503E+08, -9.391224682273047E+07,
2461666.500000000, A.D. 2027-Sep-18 00:00:00.0000, -1.480310168057141E+08, -4.070791245593980E+08, -9.339655449356079E+07,
2461673.500000000, A.D. 2027-Sep-25 00:00:00.0000, -1.375129999492202E+08, -4.093615177829080E+08, -9.282874945305750E+07,
2461680.500000000, A.D. 2027-Oct-02 00:00:00.0000, -1.269175042206433E+08, -4.114133050849345E+08, -9.220865179783902E+07,
2461687.500000000, A.D. 2027-Oct-09 00:00:00.0000, -1.162498170269075E+08, -4.132311174790981E+08, -9.153611484195283E+07,
2461694.500000000, A.D. 2027-Oct-16 00:00:00.0000, -1.055153787083738E+08, -4.148116889546041E+08, -9.081102648395708E+07,
2461701.500000000, A.D. 2027-Oct-23 00:00:00.0000, -9.471978139726476E+07, -4.161518641904510E+08, -9.003331061848921E+07,
2461708.500000000, A.D. 2027-Oct-30 00:00:00.0000, -8.386876681672679E+07, -4.172486059593030E+08, -8.920292857171553E+07,
2461715.500000000, A.D. 2027-Nov-06 00:00:00.0000, -7.296822416398428E+07, -4.180990010753975E+08, -8.831988035587573E+07,
2461722.500000000, A.D. 2027-Nov-13 00:00:00.0000, -6.202419004170344E+07, -4.187002669433131E+08, -8.738420572443143E+07,
2461729.500000000, A.D. 2027-Nov-20 00:00:00.0000, -5.104284751399905E+07, -4.190497608746372E+08, -8.639598546735269E+07,
2461736.500000000, A.D. 2027-Nov-27 00:00:00.0000, -4.003052265005448E+07, -4.191449891903658E+08, -8.535534284826079E+07,
2461743.500000000, A.D. 2027-Dec-04 00:00:00.0000, -2.899368056239604E+07, -4.189836151755462E+08, -8.426244491842639E+07,
2461750.500000000, A.D. 2027-Dec-11 00:00:00.0000, -1.793892147573259E+07, -4.185634668271204E+08, -8.311750373020440E+07,
2461757.500000000, A.D. 2027-Dec-18 00:00:00.0000, -6.872976537914873E+06, -4.178825447077769E+08, -8.192077749619889E+07,
2461764.500000000, A.D. 2027-Dec-25 00:00:00.0000, 4.197296791541918E+06, -4.169390298787215E+08, -8.067257170095429E+07,
2461771.500000000, A.D. 2028-Jan-01 00:00:00.0000, 1.526491982858013E+07, -4.157312918652511E+08, -7.937324016014740E+07,
$$EOE